[
  {
    "name": "KUIPER-00057",
    "noradId": "64517",
    "line1": "1 64517U 25134T   26184.00768287  .00005129  00000+0  70124-3 0  9990",
    "line2": "2 64517  51.8994  80.6379 0000715 102.1975 257.9068 14.79936991 57188"
  },
  {
    "name": "KUIPER-00058",
    "noradId": "64518",
    "line1": "1 64518U 25134U   26185.39745628  .00002556  00000+0  36414-3 0  9993",
    "line2": "2 64518  51.9031  69.4620 0000761  94.1733 265.9316 14.79930284 57464"
  },
  {
    "name": "KUIPER-00059",
    "noradId": "64519",
    "line1": "1 64519U 25134V   26185.94310064  .00002135  00000+0  30903-3 0  9997",
    "line2": "2 64519  51.8987  62.0900 0000861 101.3169 258.7890 14.79930684 57617"
  },
  {
    "name": "KUIPER-00060",
    "noradId": "64520",
    "line1": "1 64520U 25134W   26185.36909908  .00004815  00000+0  66018-3 0  9999",
    "line2": "2 64520  51.9036  64.6906 0000577 105.6731 254.4296 14.79934770 57517"
  },
  {
    "name": "KUIPER-00061",
    "noradId": "64521",
    "line1": "1 64521U 25134X   26185.93501686 -.00000786  00000+0 -74061-4 0  9997",
    "line2": "2 64521  51.9020  69.6409 0000655 101.3148 258.7888 14.79928398 57496"
  },
  {
    "name": "KUIPER-00062",
    "noradId": "64522",
    "line1": "1 64522U 25134Y   26185.39207981  .00001212  00000+0  18804-3 0  9994",
    "line2": "2 64522  51.8982  74.5219 0000692 111.1367 248.9670 14.79928134 57397"
  },
  {
    "name": "KUIPER-00063",
    "noradId": "64523",
    "line1": "1 64523U 25134Z   26185.72164256  .00003163  00000+0  44378-3 0  9991",
    "line2": "2 64523  51.9005  80.6120 0001065 106.2753 253.8326 14.79933659 57338"
  },
  {
    "name": "KUIPER-00064",
    "noradId": "64524",
    "line1": "1 64524U 25134AA  26185.11655845  .00005507  00000+0  75060-3 0  9990",
    "line2": "2 64524  51.9027  80.7131 0000635 106.1524 253.9508 14.79941447 57284"
  },
  {
    "name": "KUIPER-00065",
    "noradId": "64525",
    "line1": "1 64525U 25134AB  26185.44883610  .00003979  00000+0  55057-3 0  9995",
    "line2": "2 64525  51.9016  84.4128 0000728 101.1849 258.9196 14.79935410 57245"
  },
  {
    "name": "KUIPER-00066",
    "noradId": "64526",
    "line1": "1 64526U 25134AC  26185.82010810  .00003960  00000+0  54818-3 0  9996",
    "line2": "2 64526  51.9015  20.0510 0000612 105.8984 254.2046 14.79933884 58190"
  },
  {
    "name": "KUIPER-00069",
    "noradId": "64816",
    "line1": "1 64816U 25151A   26185.54074425  .00003492  00000+0  48675-3 0  9992",
    "line2": "2 64816  51.9009 123.9271 0000807  98.3996 261.7058 14.79934535 54069"
  },
  {
    "name": "KUIPER-00070",
    "noradId": "64817",
    "line1": "1 64817U 25151B   26185.61506079  .00002554  00000+0  36392-3 0  9997",
    "line2": "2 64817  51.8956 148.5109 0000763  81.8705 278.2344 14.79932767 53738"
  },
  {
    "name": "KUIPER-00071",
    "noradId": "64818",
    "line1": "1 64818U 25151C   26185.88780885  .00005001  00000+0  68497-3 0  9997",
    "line2": "2 64818  51.8984 144.8405 0000784  88.7750 271.3302 14.79907660 52626"
  },
  {
    "name": "KUIPER-00072",
    "noradId": "64819",
    "line1": "1 64819U 25151D   26185.80810655  .00005580  00000+0  76079-3 0  9996",
    "line2": "2 64819  51.8964 125.1416 0000740  58.4945 301.6089 14.79909945 52897"
  },
  {
    "name": "KUIPER-00073",
    "noradId": "64820",
    "line1": "1 64820U 25151E   26185.92161604 -.00009758  00000+0 -12529-2 0  9996",
    "line2": "2 64820  51.8994 144.6775 0001586  73.1372 286.9764 14.79928791 53811"
  },
  {
    "name": "KUIPER-00074",
    "noradId": "64821",
    "line1": "1 64821U 25151F   26185.91670139  .00189098  25194-4  46551-3 0  9997",
    "line2": "2 64821  51.8785  52.1731 0002007 154.2976 181.6246 15.95657011  5866"
  },
  {
    "name": "KUIPER-00075",
    "noradId": "64822",
    "line1": "1 64822U 25151G   26185.91255028  .00065050  00000+0  13454-2 0  9994",
    "line2": "2 64822  51.8684   9.7319 0003300 333.6107  26.4714 15.45184980 54507"
  },
  {
    "name": "KUIPER-00076",
    "noradId": "64823",
    "line1": "1 64823U 25151H   26185.86490640  .00005834  00000+0  79354-3 0  9996",
    "line2": "2 64823  51.9007 134.9478 0000796  77.2684 282.8367 14.79939922 52760"
  },
  {
    "name": "KUIPER-00077",
    "noradId": "64824",
    "line1": "1 64824U 25151J   26185.58939420  .00003989  00000+0  55195-3 0  9996",
    "line2": "2 64824  51.8997 141.1843 0000897  88.2854 271.8211 14.79932565 52657"
  },
  {
    "name": "KUIPER-00078",
    "noradId": "64825",
    "line1": "1 64825U 25151K   26185.89596731  .00005539  00000+0  75495-3 0  9993",
    "line2": "2 64825  51.8995 137.3063 0000774  90.2396 269.8655 14.79932155 52738"
  },
  {
    "name": "KUIPER-00079",
    "noradId": "64826",
    "line1": "1 64826U 25151L   26185.58668658  .00004204  00000+0  58005-3 0  9994",
    "line2": "2 64826  51.8974 143.6366 0000659  80.7642 279.3394 14.79933840 53810"
  },
  {
    "name": "KUIPER-00080",
    "noradId": "64827",
    "line1": "1 64827U 25151M   26185.89057205  .00002811  00000+0  39766-3 0  9994",
    "line2": "2 64827  51.8986 142.3020 0000769  95.7359 264.3691 14.79926235 52666"
  },
  {
    "name": "KUIPER-00082",
    "noradId": "64828",
    "line1": "1 64828U 25151N   26185.26252717  .00001040  00000+0  16533-3 0  9991",
    "line2": "2 64828  51.9007 132.6306 0000745  69.7551 290.3491 14.79936303 52743"
  },
  {
    "name": "KUIPER-00083",
    "noradId": "64829",
    "line1": "1 64829U 25151P   26185.86221098  .00002042  00000+0  29682-3 0  9998",
    "line2": "2 64829  51.8984 137.4640 0001554  87.5631 272.5509 14.79937368 53911"
  },
  {
    "name": "KUIPER-00084",
    "noradId": "64830",
    "line1": "1 64830U 25151Q   26185.91895014  .00001198  00000+0  18615-3 0  9996",
    "line2": "2 64830  51.8972 147.1950 0000759  84.1467 275.9581 14.79929122 52597"
  },
  {
    "name": "KUIPER-00085",
    "noradId": "64831",
    "line1": "1 64831U 25151R   26185.56642237  .00004842  00000+0  66362-3 0  9996",
    "line2": "2 64831  51.9010 131.3326 0000886  91.6544 268.4520 14.79940083 52784"
  },
  {
    "name": "KUIPER-00086",
    "noradId": "64832",
    "line1": "1 64832U 25151S   26185.89327964  .00002513  00000+0  35854-3 0  9995",
    "line2": "2 64832  51.9008 139.8355 0000758  85.0492 275.0557 14.79930396 52694"
  },
  {
    "name": "KUIPER-00087",
    "noradId": "64833",
    "line1": "1 64833U 25151T   26185.23685580  .00001344  00000+0  20523-3 0  9993",
    "line2": "2 64833  51.9003 125.2033 0000703  85.1933 274.9109 14.79929518 52834"
  },
  {
    "name": "KUIPER-00089",
    "noradId": "64834",
    "line1": "1 64834U 25151U   26185.56911258  .00004528  00000+0  62254-3 0  9998",
    "line2": "2 64834  51.8987 128.7544 0000798  82.6620 277.4433 14.79936771 52825"
  },
  {
    "name": "KUIPER-00090",
    "noradId": "64835",
    "line1": "1 64835U 25151V   26185.84732253  .00000543  00000+0  10020-3 0  9993",
    "line2": "2 64835  51.8973 120.0304 0000898  88.5895 271.5171 14.79929632 52967"
  },
  {
    "name": "KUIPER-00091",
    "noradId": "64836",
    "line1": "1 64836U 25151W   26185.84191713  .00007020  00000+0  94874-3 0  9990",
    "line2": "2 64836  51.8999 125.0627 0000830  90.3854 269.7203 14.79936595 52894"
  },
  {
    "name": "KUIPER-00092",
    "noradId": "64837",
    "line1": "1 64837U 25151X   26185.56372147  .00004135  00000+0  57106-3 0  9993",
    "line2": "2 64837  51.8994 133.7854 0000822  90.6348 269.4709 14.79936615 53960"
  },
  {
    "name": "KUIPER-00093",
    "noradId": "64838",
    "line1": "1 64838U 25151Y   26185.83113972  .00002013  00000+0  29299-3 0  9998",
    "line2": "2 64838  51.9007 135.0789 0000842  83.9591 276.1467 14.79933039 52755"
  },
  {
    "name": "KUIPER-00094",
    "noradId": "64839",
    "line1": "1 64839U 25151Z   26185.74451679  .00006192  00000+0  83893-3 0  9990",
    "line2": "2 64839  51.9027  90.5466 0000630 114.5107 245.5921 14.80011403 53372"
  },
  {
    "name": "KUIPER-00081",
    "noradId": "65132",
    "line1": "1 65132U 25171A   26185.75118026  .00002343  00000+0  33623-3 0  9996",
    "line2": "2 65132  51.9006 350.4274 0000750 106.3064 253.7980 14.79931220 50374"
  },
  {
    "name": "KUIPER-00088",
    "noradId": "65133",
    "line1": "1 65133U 25171B   26185.79983291  .00004905  00000+0  67185-3 0  9991",
    "line2": "2 65133  51.9018   7.7157 0000621 103.0538 257.0493 14.79937598 50131"
  },
  {
    "name": "KUIPER-00095",
    "noradId": "65134",
    "line1": "1 65134U 25171C   26185.88894381  .00002637  00000+0  37476-3 0  9993",
    "line2": "2 65134  51.9012 347.3712 0000812  99.8466 260.2588 14.79933824 50421"
  },
  {
    "name": "KUIPER-00096",
    "noradId": "65135",
    "line1": "1 65135U 25171D   26185.23391806  .00003181  00000+0  44604-3 0  9993",
    "line2": "2 65135  51.8991   2.7143 0000643 105.4709 254.6325 14.79934761 50150"
  },
  {
    "name": "KUIPER-00097",
    "noradId": "65136",
    "line1": "1 65136U 25171E   26185.90654150  .00004524  00000+0  62196-3 0  9990",
    "line2": "2 65136  51.9013   2.3952 0000541  99.2401 260.8622 14.79936090 50209"
  },
  {
    "name": "KUIPER-00098",
    "noradId": "65137",
    "line1": "1 65137U 25171F   26185.90382916  .00000983  00000+0  15796-3 0  9998",
    "line2": "2 65137  51.8995   4.7709 0000728 110.9617 249.1424 14.79930709 49525"
  },
  {
    "name": "KUIPER-00099",
    "noradId": "65138",
    "line1": "1 65138U 25171G   26185.88085256  .00001140  00000+0  17853-3 0  9995",
    "line2": "2 65138  51.9022 354.8772 0000843 106.7276 253.3779 14.79930752 50316"
  },
  {
    "name": "KUIPER-00100",
    "noradId": "65139",
    "line1": "1 65139U 25171H   26185.84977573  .00004208  00000+0  58061-3 0  9998",
    "line2": "2 65139  51.9020 352.4861 0000632 106.5044 253.5988 14.79933410 50346"
  },
  {
    "name": "KUIPER-00102",
    "noradId": "65140",
    "line1": "1 65140U 25171J   26185.91460268 -.00000632  00000+0 -53890-4 0  9991",
    "line2": "2 65140  51.8963 354.6892 0001277  95.1943 264.9165 14.79925639 50312"
  }
]